DMSP 5D-3 F16 (USA 172) 
1 28054U 03048A   26065.30324266  .00000189  00000+0  12228-3 0  9994
2 28054  98.9996  88.4048 0008172  81.1566 289.6282 14.14460598154940
METEOSAT-9 (MSG-2)      
1 28912U 05049B   26065.06711492  .00000121  00000+0  00000+0 0  9991
2 28912   9.1287  55.1656 0001636 223.7323 314.8216  1.00278249  5965
DMSP 5D-3 F17 (USA 191) 
1 29522U 06050A   26065.28379698  .00000240  00000+0  14663-3 0  9990
2 29522  98.7414  73.9482 0009966 356.7443   3.3664 14.14962150997864
FENGYUN 3A              
1 32958U 08026A   26065.28147591  .00000158  00000+0  95357-4 0  9995
2 32958  98.6794   8.0922 0009760  67.0681 293.1524 14.19545134920805
GOES 14                 
1 35491U 09033A   26065.16572465  .00000120  00000+0  00000+0 0  9993
2 35491   1.4238  84.3957 0001780 255.5978  84.3240  1.00100143  5551
DMSP 5D-3 F18 (USA 210) 
1 35951U 09057A   26065.24713593  .00000357  00000+0  20795-3 0  9997
2 35951  98.8960  46.2882 0010933 178.0597 182.0620 14.14833413845039
EWS-G2 (GOES 15)        
1 36411U 10008A   26065.16626162  .00000016  00000+0  00000+0 0  9998
2 36411   1.0131  85.1126 0002005  18.4418 183.6554  1.00269713 58609
COMS 1                  
1 36744U 10032A   26064.95739014 -.00000349  00000+0  00000+0 0  9991
2 36744   4.5396  76.8490 0001227 290.3304 269.3388  1.00271922 50053
FENGYUN 3B              
1 37214U 10059A   26065.27991277  .00000387  00000+0  22343-3 0  9999
2 37214  98.9769 110.7945 0023029 117.4613  15.2891 14.14817254792879
SUOMI NPP               
1 37849U 11061A   26065.28948032  .00000144  00000+0  89148-4 0  9997
2 37849  98.7867   6.9192 0000402 263.2278  96.8853 14.19542441743841
METEOSAT-10 (MSG-3)     
1 38552U 12035B   26065.22502188 -.00000010  00000+0  00000+0 0  9991
2 38552   4.4280  61.4557 0002494 282.3505 261.3987  1.00267763 49826
METOP-B                 
1 38771U 12049A   26065.27743605  .00000173  00000+0  98863-4 0  9993
2 38771  98.6649 118.7664 0001189 284.6654  75.4392 14.21443484698645
INSAT-3D                
1 39216U 13038B   26065.25041532 -.00000344  00000+0  00000+0 0  9997
2 39216   1.6601  83.8888 0001701 246.5341  53.1897  1.00272710 46041
FENGYUN 3C              
1 39260U 13052A   26065.28344431  .00000166  00000+0  10564-3 0  9990
2 39260  98.4887  43.9382 0014002 323.5383  36.4838 14.15727658644001
METEOR-M 2              
1 40069U 14037A   26065.23417751  .00000236  00000+0  12733-3 0  9992
2 40069  98.5021  44.6730 0005593 348.3588  11.7460 14.21427126604695
HIMAWARI-8              
1 40267U 14060A   26064.96764973 -.00000282  00000+0  00000+0 0  9990
2 40267   0.0252 238.2083 0000720  99.4681 315.0191  1.00271621 41726
FENGYUN 2G              
1 40367U 14090A   26065.03080104 -.00000307  00000+0  00000+0 0  9998
2 40367   5.3782  74.0681 0001751 151.2424  49.2255  1.00274017 40964
METEOSAT-11 (MSG-4)     
1 40732U 15034A   26065.22684189  .00000057  00000+0  00000+0 0  9998
2 40732   2.9422  71.6698 0001806 270.7557 272.5461  1.00266672  6184
ELEKTRO-L 2             
1 41105U 15074A   26065.29348885 -.00000120  00000+0  00000+0 0  9996
2 41105   6.4359  71.7901 0003316 241.1196 302.2488  1.00271019 37471
INSAT-3DR               
1 41752U 16054A   26065.16842830 -.00000082  00000+0  00000+0 0  9995
2 41752   0.0518  95.4837 0013110 186.5629  16.4609  1.00272637 34780
HIMAWARI-9              
1 41836U 16064A   26065.25292867 -.00000280  00000+0  00000+0 0  9998
2 41836   0.0134 170.3477 0001232 206.0634  19.3943  1.00271854 34172
GOES 16                 
1 41866U 16071A   26065.20430845 -.00000096  00000+0  00000+0 0  9999
2 41866   0.1424  89.5183 0002414 221.6288 181.6256  1.00271914 34070
FENGYUN 4A              
1 41882U 16077A   26065.24954866 -.00000361  00000+0  00000+0 0  9996
2 41882   2.0608  81.3938 0007319 135.3159 160.7109  1.00278417 33897
CYGFM05                 
1 41884U 16078A   26064.84108394  .00028028  00000+0  45092-3 0  9994
2 41884  34.9570 222.5928 0007091 253.3026 106.6918 15.51951186512666
CYGFM04                 
1 41885U 16078B   26064.70620458  .00033317  00000+0  47322-3 0  9995
2 41885  34.9332 195.6941 0006087 285.4912  74.5139 15.55346622512847
CYGFM02                 
1 41886U 16078C   26064.67728574  .00057935  00000+0  75308-3 0  9997
2 41886  34.9415 192.8729 0007158 287.1456  72.8484 15.57615372512987
CYGFM01                 
1 41887U 16078D   26064.86935391  .00028537  00000+0  45186-3 0  9993
2 41887  34.9401 224.2134 0006766 245.4313 114.5705 15.52390868512611
CYGFM08                 
1 41888U 16078E   26064.72461389  .00030834  00000+0  46235-3 0  9999
2 41888  34.9433 207.0772 0008209 268.6297  91.3486 15.53865746512831
CYGFM07                 
1 41890U 16078G   26064.75716583  .00031360  00000+0  45859-3 0  9990
2 41890  34.9456 195.3350 0006685 288.6119  71.3879 15.54561281512866
CYGFM03                 
1 41891U 16078H   26064.72825959  .00031028  00000+0  45360-3 0  9994
2 41891  34.9409 197.5030 0005934 274.4510  85.5535 15.54576233512834
FENGYUN 3D              
1 43010U 17072A   26065.32377819  .00000588  00000+0  29998-3 0  9994
2 43010  99.0026  37.9451 0001746  19.5822 340.5420 14.19715576430393
NOAA 20 (JPSS-1)        
1 43013U 17073A   26065.30413478  .00000124  00000+0  79552-4 0  9996
2 43013  98.7689   5.7250 0001061 141.7646 218.3606 14.19535050429875
GOES 17                 
1 43226U 18022A   26065.17822755 -.00000187  00000+0  00000+0 0  9991
2 43226   0.6726  87.5170 0002145 224.8372 186.1889  1.00270210 29395
FENGYUN 2H              
1 43491U 18050A   26065.10322527 -.00000132  00000+0  00000+0 0  9991
2 43491   2.7651  80.3398 0001756 174.9728  24.7479  1.00272682 28407
METOP-C                 
1 43689U 18087A   26065.23155436  .00000160  00000+0  93092-4 0  9995
2 43689  98.6772 126.6631 0002178 104.6388 255.5031 14.21495715380207
GEO-KOMPSAT-2A          
1 43823U 18100A   26063.26502859  .00000000  00000+0  00000+0 0  9992
2 43823   0.0084  82.1864 0001750 326.5345 336.9688  1.00267019 26573
METEOR-M2 2             
1 44387U 19038A   26065.26267557  .00000392  00000+0  18958-3 0  9993
2 44387  98.9082  51.0667 0001103  10.8806 349.2396 14.24333367346642
ARKTIKA-M 1             
1 47719U 21016A   26061.82287547 -.00000108  00000+0  00000+0 0  9994
2 47719  63.2036  72.8571 7242814 269.4536  15.2019  2.00620868 36653
FENGYUN 3E              
1 49008U 21062A   26065.31961566  .00000157  00000+0  94756-4 0  9995
2 49008  98.7509  69.8706 0002416  48.6101 311.5283 14.19894014241988
GOES 18                 
1 51850U 22021A   26065.19789509  .00000091  00000+0  00000+0 0  9991
2 51850   0.0342  75.4754 0000729 328.9257  53.7507  1.00272933  5566
NOAA 21 (JPSS-2)        
1 54234U 22150A   26065.26839537  .00000135  00000+0  84905-4 0  9998
2 54234  98.7552   5.5736 0002593 112.6272 247.5179 14.19551134171943
METEOSAT-12 (MTG-I1)    
1 54743U 22170C   26065.15360823 -.00000013  00000+0  00000+0 0  9995
2 54743   0.7030  21.6583 0002050 287.1766 270.0306  1.00269870 11940
TIANMU-1 03             
1 55973U 23039A   26065.25037851  .00018617  00000+0  40935-3 0  9992
2 55973  97.5173 235.4530 0004022 111.0690 249.0989 15.44040094164936
TIANMU-1 04             
1 55974U 23039B   26065.27474839  .00020436  00000+0  44283-3 0  9998
2 55974  97.5107 234.6394 0004670 107.0083 253.1677 15.44450653164940
TIANMU-1 05             
1 55975U 23039C   26065.29164360  .00018927  00000+0  41695-3 0  9992
2 55975  97.5152 235.1483 0003785 127.8350 232.3241 15.43982815164922
TIANMU-1 06             
1 55976U 23039D   26065.27461751  .00020383  00000+0  44131-3 0  9992
2 55976  97.5164 235.6679 0004091 123.6019 236.5620 15.44480099164942
FENGYUN 3G              
1 56232U 23055A   26065.29093582  .00031609  00000+0  47691-3 0  9998
2 56232  49.9929 156.5457 0010752 357.7876   2.3043 15.54363530164012
METEOR-M2 3             
1 57166U 23091A   26065.30445628  .00000019  00000+0  27107-4 0  9991
2 57166  98.6221 122.3277 0005084 106.9889 253.1847 14.24037239139870
TIANMU-1 07             
1 57399U 23101A   26065.24734412  .00007428  00000+0  26535-3 0  9990
2 57399  97.2728 118.2729 0004588 143.3050 216.8506 15.29112267145915
TIANMU-1 08             
1 57400U 23101B   26065.41345562  .00000406  00000+0  16876-4 0  9993
2 57400  97.2722 118.2135 0006342 135.5438 224.6312 15.29192867145934
TIANMU-1 09             
1 57401U 23101C   26065.26408813  .00006907  00000+0  24775-3 0  9994
2 57401  97.2674 117.5459 0004643 149.1911 210.9603 15.29007630145913
TIANMU-1 10             
1 57402U 23101D   26065.29858748  .00008734  00000+0  31109-3 0  9993
2 57402  97.2753 118.5181 0006669 143.9834 216.1857 15.29145972145912
FENGYUN 3F              
1 57490U 23111A   26065.30560319  .00000112  00000+0  73156-4 0  9998
2 57490  98.6934 137.1952 0001302  81.1897 278.9427 14.19918574134268
ARKTIKA-M 2             
1 58584U 23198A   26064.07652728  .00000150  00000+0  00000+0 0  9992
2 58584  63.2186 165.9003 6877723 267.7621  18.8474  2.00612038 16239
TIANMU-1 11             
1 58645U 23205A   26065.33040523  .00007720  00000+0  30424-3 0  9990
2 58645  97.3546  88.5355 0009392  19.8770 340.2833 15.25824351121837
TIANMU-1 12             
1 58646U 23205B   26065.29708041  .00006705  00000+0  26540-3 0  9998
2 58646  97.3534  88.2825 0007194   6.4718 353.6612 15.25746827121818
TIANMU-1 13             
1 58647U 23205C   26065.32808841  .00007821  00000+0  30858-3 0  9999
2 58647  97.3562  88.5503 0006828 346.5854  13.5201 15.25797682121819
TIANMU-1 14             
1 58648U 23205D   26065.24702388  .00007301  00000+0  28845-3 0  9996
2 58648  97.3496  87.7425 0007742 350.2308   9.8779 15.25773755121804
TIANMU-1 19             
1 58660U 23208A   26065.26313926  .00011663  00000+0  40714-3 0  9996
2 58660  97.4388 181.2469 0004142 332.0285  28.0732 15.29744720121581
TIANMU-1 20             
1 58661U 23208B   26065.25011347  .00010710  00000+0  36058-3 0  9996
2 58661  97.4328 181.7640 0006426 338.9235  21.1740 15.30933115121661
TIANMU-1 21             
1 58662U 23208C   26065.25312711  .00012318  00000+0  38935-3 0  9998
2 58662  97.4382 184.0284 0006200 332.0081  28.0827 15.32929677121781
TIANMU-1 22             
1 58663U 23208D   26065.27992634  .00010491  00000+0  37084-3 0  9993
2 58663  97.4383 181.2769 0003403   6.1135 354.0146 15.29367883121597
TIANMU-1 15             
1 58700U 24004A   26065.31036365  .00007832  00000+0  30931-3 0  9994
2 58700  97.4665 251.5532 0006960   2.1934 357.9333 15.25772986120088
TIANMU-1 16             
1 58701U 24004B   26065.29392418  .00007498  00000+0  29603-3 0  9998
2 58701  97.4607 250.8623 0005492   8.3344 351.7984 15.25806079120085
TIANMU-1 17             
1 58702U 24004C   26065.27633613  .00007535  00000+0  29720-3 0  9994
2 58702  97.4639 251.2968 0004728  11.7863 348.3485 15.25841561120075
TIANMU-1 18             
1 58703U 24004D   26065.32696973  .00008427  00000+0  33251-3 0  9994
2 58703  97.4656 251.5583 0004139  13.0914 347.0431 15.25792965120080
INSAT-3DS               
1 58990U 24033A   26065.16998831 -.00000160  00000+0  00000+0 0  9993
2 58990   0.0512 261.5606 0002327  99.7991 305.7775  1.00270261 46031
METEOR-M2 4             
1 59051U 24039A   26065.27268814  .00000043  00000+0  38739-4 0  9995
2 59051  98.6902  25.9287 0008107 104.8553 255.3523 14.22416409104633
GOES 19                 
1 60133U 24119A   26065.06754785 -.00000254  00000+0  00000+0 0  9991
2 60133   0.0063  87.2880 0001074 300.4838  85.1354  1.00271600  5935
FENGYUN 3H              
1 65815U 25219A   26065.23141390  .00000139  00000+0  86053-4 0  9994
2 65815  98.6683   8.0515 0001360  63.1547 296.9768 14.19931534 22777
